{"type": "FeatureCollection", "features": [ {"type": "Feature", "properties": {"norad_id": 34433, "name": "COSMOS 2251 DEB", "group": "cosmos-2251-debris", "lat": 70.33496897357443, "lon": -103.96866095097455, "alt_km": 947.6521622755681, "timestamp": "2025-12-27T03:58:44.541246+00:00", "meta": {"OBJECT_NAME": "COSMOS 2251 DEB", "OBJECT_ID": "1993-036SA", "EPOCH": "2025-12-25T19:12:11.035008", "MEAN_MOTION": 14.12911954, "ECCENTRICITY": 0.0152849, "INCLINATION": 74.01, "RA_OF_ASC_NODE": 131.8065, "ARG_OF_PERICENTER": 267.1359, "MEAN_ANOMALY": 91.228, "EPHEMERIS_TYPE": 0, "CLASSIFICATION_TYPE": "U", "NORAD_CAT_ID": 34433, "ELEMENT_SET_NO": 999, "REV_AT_EPOCH": 86134, "BSTAR": 0.001379, "MEAN_MOTION_DOT": 2.843e-05, "MEAN_MOTION_DDOT": 0}, "tle": {"line1": "1 34433U 93036SA  25359.80012772  .00002843  00000+0  13790-2 0  9997", "line2": "2 34433  74.0100 131.8065 0152849 267.1359  91.2280 14.12911954861348"}}, "geometry": {"type": "Point", "coordinates": [-103.96866095097455, 70.33496897357443]}}, {"type": "Feature", "properties": {"norad_id": 34434, "name": "COSMOS 2251 DEB", "group": "cosmos-2251-debris", "lat": -56.51109338620778, "lon": -168.8247225229034, "alt_km": 1033.6775846387955, "timestamp": "2025-12-27T03:58:44.541255+00:00", "meta": {"OBJECT_NAME": "COSMOS 2251 DEB", "OBJECT_ID": "1993-036SB", "EPOCH": "2025-12-26T18:31:21.199296", "MEAN_MOTION": 13.89893257, "ECCENTRICITY": 0.027339, "INCLINATION": 74.0626, "RA_OF_ASC_NODE": 346.2578, "ARG_OF_PERICENTER": 120.134, "MEAN_ANOMALY": 306.4729, "EPHEMERIS_TYPE": 0, "CLASSIFICATION_TYPE": "U", "NORAD_CAT_ID": 34434, "ELEMENT_SET_NO": 999, "REV_AT_EPOCH": 84161, "BSTAR": 0.0023071, "MEAN_MOTION_DOT": 3.817e-05, "MEAN_MOTION_DDOT": 0}, "tle": {"line1": "1 34434U 93036SB  25360.77177314  .00003817  00000+0  23071-2 0  9995", "line2": "2 34434  74.0626 346.2578 0273390 120.1340 306.4729 13.89893257841611"}}, "geometry": {"type": "Point", "coordinates": [-168.8247225229034, -56.51109338620778]}}, {"type": "Feature", "properties": {"norad_id": 34446, "name": "COSMOS 2251 DEB", "group": "cosmos-2251-debris", "lat": -73.8875045677621, "lon": -51.90219756893476, "alt_km": 745.2588432048942, "timestamp": "2025-12-27T03:58:44.541265+00:00", "meta": {"OBJECT_NAME": "COSMOS 2251 DEB", "OBJECT_ID": "1993-036SP", "EPOCH": "2025-12-26T18:26:50.872704", "MEAN_MOTION": 14.49367446, "ECCENTRICITY": 0.0050443, "INCLINATION": 74.0414, "RA_OF_ASC_NODE": 30.9725, "ARG_OF_PERICENTER": 165.5811, "MEAN_ANOMALY": 194.6802, "EPHEMERIS_TYPE": 0, "CLASSIFICATION_TYPE": "U", "NORAD_CAT_ID": 34446, "ELEMENT_SET_NO": 999, "REV_AT_EPOCH": 88897, "BSTAR": 0.00012144, "MEAN_MOTION_DOT": 4.43e-06, "MEAN_MOTION_DDOT": 0}, "tle": {"line1": "1 34446U 93036SP  25360.76864436  .00000443  00000+0  12144-3 0  9997", "line2": "2 34446  74.0414  30.9725 0050443 165.5811 194.6802 14.49367446888970"}}, "geometry": {"type": "Point", "coordinates": [-51.90219756893476, -73.8875045677621]}}, {"type": "Feature", "properties": {"norad_id": 34449, "name": "COSMOS 2251 DEB", "group": "cosmos-2251-debris", "lat": -71.10632826150889, "lon": -15.336841804765887, "alt_km": 601.6746582548249, "timestamp": "2025-12-27T03:58:44.541274+00:00", "meta": {"OBJECT_NAME": "COSMOS 2251 DEB", "OBJECT_ID": "1993-036SS", "EPOCH": "2025-12-26T12:50:59.003232", "MEAN_MOTION": 14.95603421, "ECCENTRICITY": 0.0022706, "INCLINATION": 74.0324, "RA_OF_ASC_NODE": 42.7181, "ARG_OF_PERICENTER": 76.9534, "MEAN_ANOMALY": 50.6798, "EPHEMERIS_TYPE": 0, "CLASSIFICATION_TYPE": "U", "NORAD_CAT_ID": 34449, "ELEMENT_SET_NO": 999, "REV_AT_EPOCH": 88899, "BSTAR": 0.002431, "MEAN_MOTION_DOT": 0.00027206, "MEAN_MOTION_DDOT": 0}, "tle": {"line1": "1 34449U 93036SS  25360.53540513  .00027206  00000+0  24310-2 0  9995", "line2": "2 34449  74.0324  42.7181 0022706  76.9534  50.6798 14.95603421888992"}}, "geometry": {"type": "Point", "coordinates": [-15.336841804765887, -71.10632826150889]}}, {"type": "Feature", "properties": {"norad_id": 34451, "name": "COSMOS 2251 DEB", "group": "cosmos-2251-debris", "lat": -65.97835851317451, "lon": 18.81837413168009, "alt_km": 598.0222611906065, "timestamp": "2025-12-27T03:58:44.541283+00:00", "meta": {"OBJECT_NAME": "COSMOS 2251 DEB", "OBJECT_ID": "1993-036SU", "EPOCH": "2025-12-26T13:51:31.737024", "MEAN_MOTION": 14.96355196, "ECCENTRICITY": 0.0023986, "INCLINATION": 74.0457, "RA_OF_ASC_NODE": 59.9389, "ARG_OF_PERICENTER": 71.3089, "MEAN_ANOMALY": 289.0697, "EPHEMERIS_TYPE": 0, "CLASSIFICATION_TYPE": "U", "NORAD_CAT_ID": 34451, "ELEMENT_SET_NO": 999, "REV_AT_EPOCH": 88842, "BSTAR": 0.0026962, "MEAN_MOTION_DOT": 0.000308, "MEAN_MOTION_DDOT": 0}, "tle": {"line1": "1 34451U 93036SU  25360.57745066  .00030800  00000+0  26962-2 0  9991", "line2": "2 34451  74.0457  59.9389 0023986  71.3089 289.0697 14.96355196888425"}}, "geometry": {"type": "Point", "coordinates": [18.81837413168009, -65.97835851317451]}}, {"type": "Feature", "properties": {"norad_id": 34452, "name": "COSMOS 2251 DEB", "group": "cosmos-2251-debris", "lat": 54.12568062297744, "lon": -50.37230813381155, "alt_km": 534.3912340530233, "timestamp": "2025-12-27T03:58:44.541293+00:00", "meta": {"OBJECT_NAME": "COSMOS 2251 DEB", "OBJECT_ID": "1993-036SV", "EPOCH": "2025-12-26T11:48:18.165024", "MEAN_MOTION": 15.12078012, "ECCENTRICITY": 0.0063908, "INCLINATION": 74.0318, "RA_OF_ASC_NODE": 154.3477, "ARG_OF_PERICENTER": 227.5925, "MEAN_ANOMALY": 188.7163, "EPHEMERIS_TYPE": 0, "CLASSIFICATION_TYPE": "U", "NORAD_CAT_ID": 34452, "ELEMENT_SET_NO": 999, "REV_AT_EPOCH": 90870, "BSTAR": 0.0010171, "MEAN_MOTION_DOT": 0.00018397, "MEAN_MOTION_DDOT": 0}, "tle": {"line1": "1 34452U 93036SV  25360.49187691  .00018397  00000+0  10171-2 0  9999", "line2": "2 34452  74.0318 154.3477 0063908 227.5925 188.7163 15.12078012908707"}}, "geometry": {"type": "Point", "coordinates": [-50.37230813381155, 54.12568062297744]}}, {"type": "Feature", "properties": {"norad_id": 34454, "name": "COSMOS 2251 DEB", "group": "cosmos-2251-debris", "lat": -31.601775775481237, "lon": -119.05818323009264, "alt_km": 743.3696573454572, "timestamp": "2025-12-27T03:58:44.541302+00:00", "meta": {"OBJECT_NAME": "COSMOS 2251 DEB", "OBJECT_ID": "1993-036SX", "EPOCH": "2025-12-26T18:07:08.791968", "MEAN_MOTION": 14.38829634, "ECCENTRICITY": 0.0036014, "INCLINATION": 74.0582, "RA_OF_ASC_NODE": 251.8267, "ARG_OF_PERICENTER": 311.5925, "MEAN_ANOMALY": 48.2144, "EPHEMERIS_TYPE": 0, "CLASSIFICATION_TYPE": "U", "NORAD_CAT_ID": 34454, "ELEMENT_SET_NO": 999, "REV_AT_EPOCH": 88269, "BSTAR": 0.00022337, "MEAN_MOTION_DOT": 6.66e-06, "MEAN_MOTION_DDOT": 0}, "tle": {"line1": "1 34454U 93036SX  25360.75496287  .00000666  00000+0  22337-3 0  9992", "line2": "2 34454  74.0582 251.8267 0036014 311.5925  48.2144 14.38829634882693"}}, "geometry": {"type": "Point", "coordinates": [-119.05818323009264, -31.601775775481237]}}, {"type": "Feature", "properties": {"norad_id": 34459, "name": "COSMOS 2251 DEB", "group": "cosmos-2251-debris", "lat": 41.262544220676475, "lon": 34.61117004648347, "alt_km": 1018.3868277654528, "timestamp": "2025-12-27T03:58:44.541311+00:00", "meta": {"OBJECT_NAME": "COSMOS 2251 DEB", "OBJECT_ID": "1993-036TC", "EPOCH": "2025-12-26T08:27:30.265632", "MEAN_MOTION": 14.005194, "ECCENTRICITY": 0.0192136, "INCLINATION": 74.0778, "RA_OF_ASC_NODE": 230.5206, "ARG_OF_PERICENTER": 297.2174, "MEAN_ANOMALY": 60.9494, "EPHEMERIS_TYPE": 0, "CLASSIFICATION_TYPE": "U", "NORAD_CAT_ID": 34459, "ELEMENT_SET_NO": 999, "REV_AT_EPOCH": 85902, "BSTAR": 0.00034258, "MEAN_MOTION_DOT": 5.72e-06, "MEAN_MOTION_DDOT": 0}, "tle": {"line1": "1 34459U 93036TC  25360.35243363  .00000572  00000+0  34258-3 0  9999", "line2": "2 34459  74.0778 230.5206 0192136 297.2174  60.9494 14.00519400859022"}}, "geometry": {"type": "Point", "coordinates": [34.61117004648347, 41.262544220676475]}}, {"type": "Feature", "properties": {"norad_id": 34464, "name": "COSMOS 2251 DEB", "group": "cosmos-2251-debris", "lat": 52.26208342901909, "lon": 69.34931478514216, "alt_km": 482.421696280564, "timestamp": "2025-12-27T03:58:44.541320+00:00", "meta": {"OBJECT_NAME": "COSMOS 2251 DEB", "OBJECT_ID": "1993-036TH", "EPOCH": "2025-12-26T13:36:18.094176", "MEAN_MOTION": 15.29047628, "ECCENTRICITY": 0.0013527, "INCLINATION": 73.9884, "RA_OF_ASC_NODE": 48.8455, "ARG_OF_PERICENTER": 231.1496, "MEAN_ANOMALY": 128.8499, "EPHEMERIS_TYPE": 0, "CLASSIFICATION_TYPE": "U", "NORAD_CAT_ID": 34464, "ELEMENT_SET_NO": 999, "REV_AT_EPOCH": 90051, "BSTAR": 0.0026331, "MEAN_MOTION_DOT": 0.00075197, "MEAN_MOTION_DDOT": 0}, "tle": {"line1": "1 34464U 93036TH  25360.56687609  .00075197  00000+0  26331-2 0  9990", "line2": "2 34464  73.9884  48.8455 0013527 231.1496 128.8499 15.29047628900510"}}, "geometry": {"type": "Point", "coordinates": [69.34931478514216, 52.26208342901909]}}, {"type": "Feature", "properties": {"norad_id": 34468, "name": "COSMOS 2251 DEB", "group": "cosmos-2251-debris", "lat": 61.90947928772447, "lon": 122.66605110242206, "alt_km": 779.3733923587888, "timestamp": "2025-12-27T03:58:44.541329+00:00", "meta": {"OBJECT_NAME": "COSMOS 2251 DEB", "OBJECT_ID": "1993-036TM", "EPOCH": "2025-12-26T12:44:29.927616", "MEAN_MOTION": 14.47661543, "ECCENTRICITY": 0.0076219, "INCLINATION": 74.0132, "RA_OF_ASC_NODE": 91.367, "ARG_OF_PERICENTER": 233.5114, "MEAN_ANOMALY": 125.9007, "EPHEMERIS_TYPE": 0, "CLASSIFICATION_TYPE": "U", "NORAD_CAT_ID": 34468, "ELEMENT_SET_NO": 999, "REV_AT_EPOCH": 88661, "BSTAR": 0.00037596, "MEAN_MOTION_DOT": 1.408e-05, "MEAN_MOTION_DDOT": 0}, "tle": {"line1": "1 34468U 93036TM  25360.53090194  .00001408  00000+0  37596-3 0  9998", "line2": "2 34468  74.0132  91.3670 0076219 233.5114 125.9007 14.47661543886618"}}, "geometry": {"type": "Point", "coordinates": [122.66605110242206, 61.90947928772447]}}]}